{"type": "FeatureCollection", "features": [{"type": "Feature", "properties": {"id": 1, "text": "1: XX. III\n2: L\n3: RIVS\n4: IVS", "bbox_w": 0.0054499824982991996, "bbox_h": 0.0031586342573604043}, "geometry": {"type": "Polygon", "coordinates": [[[4.690196442014308, 44.37773501489353], [4.695646424512607, 44.37753157743289], [4.695614302808295, 44.37708187357252], [4.695550059399671, 44.3767606565294], [4.695228842356549, 44.37457638063617], [4.690196442014308, 44.37494042661837], [4.690196442014308, 44.37773501489353]]]}}, {"type": "Feature", "properties": {"id": 2, "text": "1: EXTR", "bbox_w": 0.0059005693201434894, "bbox_h": 0.005197402234273341}, "geometry": {"type": "Polygon", "coordinates": [[[4.694950087172232, 44.37761272484481], [4.690159605813385, 44.37774320488182], [4.690184459153767, 44.38025960559562], [4.690221030357964, 44.38281012707908], [4.69416284726316, 44.38266296591462], [4.696060175133528, 44.38248952597079], [4.695608180128398, 44.377638463299455], [4.694950087172232, 44.37761272484481]]]}}, {"type": "Feature", "properties": {"id": 3, "text": "1: IIII\n2: PR.A.VIIII\n3: XII:S SO?\n4: ?FX:? ?REIV", "bbox_w": 0.007004307235713547, "bbox_h": 0.00555381689785861}, "geometry": {"type": "Polygon", "coordinates": [[[4.690191111166512, 44.38805898807941], [4.693166813956299, 44.38775458424496], [4.693781833948343, 44.38776079656811], [4.694340943032019, 44.38774215959865], [4.6971954184022255, 44.38750351707419], [4.697179974712463, 44.38690349597314], [4.696763749061281, 44.38438750509659], [4.6966954135066095, 44.38374763581194], [4.6965152561352035, 44.38266047926035], [4.696359948056404, 44.38250517118155], [4.6913714525653845, 44.38285927360121], [4.690197323489665, 44.38288412289382], [4.690191111166512, 44.38805898807941]]]}}, {"type": "Feature", "properties": {"id": 4, "text": "1: EX:R CLXII\n2: C?L CXXX?X\n3: PR XXXVII?IV\n4: ?K:SET.IVGI", "bbox_w": 0.007727516411313751, "bbox_h": 0.005759766874220418}, "geometry": {"type": "Polygon", "coordinates": [[[4.69017536472878, 44.39332218125473], [4.697902881140093, 44.39277900039293], [4.697216218541209, 44.38756241438051], [4.694490065536687, 44.387746890899614], [4.693465195986115, 44.387828880463665], [4.692378834262509, 44.387828880463665], [4.690185613424284, 44.38809534654681], [4.690185613424285, 44.39289173604348], [4.69017536472878, 44.39332218125473]]]}}, {"type": "Feature", "properties": {"id": 5, "text": "1: DDK\n2: ? C.C", "bbox_w": 0.008417965083663326, "bbox_h": 0.005697006672782834}, "geometry": {"type": "Polygon", "coordinates": [[[4.690164945822068, 44.39853608621561], [4.698582910905731, 44.397983391538396], [4.697860156327842, 44.392839079542824], [4.690186203309653, 44.393434289195206], [4.690164945822068, 44.39853608621561]]]}}, {"type": "Feature", "properties": {"id": 6, "text": "1: DDX.?\n2: EX?", "bbox_w": 0.008841373888221149, "bbox_h": 0.002912081530368482}, "geometry": {"type": "Polygon", "coordinates": [[[4.698605382573185, 44.39802670974026], [4.6901529870843275, 44.39860492087445], [4.69012144829519, 44.400938791270626], [4.698962822183411, 44.40030801548787], [4.698605382573185, 44.39802670974026]]]}}, {"type": "Feature", "properties": {"id": 7, "text": "1: XX?A:SO?\n2: W?RO\n3l T?", "bbox_w": 0.0033464744163227422, "bbox_h": 0.004455246060295792}, "geometry": {"type": "Polygon", "coordinates": [[[4.692959615711104, 44.41896185234143], [4.690167527116762, 44.41912312821692], [4.690137287890108, 44.42210673191341], [4.690550557321039, 44.42341709840173], [4.691175501338546, 44.42337677943286], [4.691588770769477, 44.42304414793967], [4.692304432466944, 44.42271151644648], [4.693120891586589, 44.422610719024306], [4.693483762306431, 44.422550240571], [4.692959615711104, 44.41896185234143]]]}}, {"type": "Feature", "properties": {"id": 8, "text": "1: ?DX:IXVKV\n2: EXTK CC", "bbox_w": 0.0096990160845154, "bbox_h": 0.005517441565061176}, "geometry": {"type": "Polygon", "coordinates": [[[4.700076088626257, 44.408107773495], [4.696372940909174, 44.40835009356373], [4.693614220126647, 44.40852406694642], [4.693477526754539, 44.409058413764654], [4.693216566680516, 44.40964246726366], [4.692943179936302, 44.4086980403291], [4.692744353213238, 44.408499213606035], [4.691700512917146, 44.408548920286805], [4.690979766046035, 44.408673186988715], [4.691066752737377, 44.40945606721078], [4.691414699502739, 44.411431907771245], [4.691980112996458, 44.41362521506006], [4.698889341622966, 44.41324620161922], [4.7006787821305505, 44.41308465490673], [4.700268702014228, 44.40917025379639], [4.700082301961356, 44.40882230703102], [4.700076088626257, 44.408107773495]]]}}, {"type": "Feature", "properties": {"id": 9, "text": "1: DDX?X??\n2: ?X?R", "bbox_w": 0.009476286236320242, "bbox_h": 0.0057499053009237855}, "geometry": {"type": "Polygon", "coordinates": [[[4.691986789295858, 44.41369168813211], [4.692993022723519, 44.41889977543352], [4.701463075532178, 44.41833584241363], [4.700700107328787, 44.4131498701326], [4.691986789295858, 44.41369168813211]]]}}, {"type": "Feature", "properties": {"id": 10, "text": "1: D\n2: FXI", "bbox_w": 0.008707688427577409, "bbox_h": 0.0023551812372204495}, "geometry": {"type": "Polygon", "coordinates": [[[4.693251580268278, 44.42072978346568], [4.701710786271743, 44.42055692612718], [4.701494714598602, 44.41837460222846], [4.693003097844166, 44.4189147814113], [4.693251580268278, 44.42072978346568]]]}}, {"type": "Feature", "properties": {"id": 11, "text": "1: I.V?IV\n2: VG.LXII\n3: XXIIX\n4: IIXIX?\n5: OI\n6: RIVS", "bbox_w": 0.00910336352062302, "bbox_h": 0.003623476210499632}, "geometry": {"type": "Polygon", "coordinates": [[[4.695704041266041, 44.37747519581088], [4.702156807120354, 44.376978829206706], [4.704350747510821, 44.37682991922545], [4.704102564208732, 44.37385171960038], [4.695247383990198, 44.374556560178306], [4.695704041266041, 44.37747519581088]]]}}, {"type": "Feature", "properties": {"id": 12, "text": "1: DDXII V?IIII\n2: EXT? LX\n3: COLCXXXIX5??\n4: PR AER IIII\n5: XXXXIVS?SI\n6: SO SEXCA?", "bbox_w": 0.00950663955932285, "bbox_h": 0.005687378251650443}, "geometry": {"type": "Polygon", "coordinates": [[[4.69651429345736, 44.38257030118457], [4.705169901964429, 44.38207213666618], [4.70448492575164, 44.37688292293292], [4.695663262405106, 44.37760941285558], [4.696086453912895, 44.38173795288087], [4.69651429345736, 44.38257030118457]]]}}, {"type": "Feature", "properties": {"id": 13, "text": "1: DDXIIIVI\n2: ?V??OU\n3: SEXKARELVS", "bbox_w": 0.009169107405588406, "bbox_h": 0.005440770588187149}, "geometry": {"type": "Polygon", "coordinates": [[[4.697224735694288, 44.38751385044045], [4.705743551794516, 44.38690691188878], [4.705093260489154, 44.38207307985226], [4.6965744443889275, 44.382636665650246], [4.697224735694288, 44.38751385044045]]]}}, {"type": "Feature", "properties": {"id": 14, "text": "1: O\n2: SEX IVS", "bbox_w": 0.009157160685842491, "bbox_h": 0.005728452118539451}, "geometry": {"type": "Polygon", "coordinates": [[[4.6979132236705405, 44.39273280708802], [4.706443181569682, 44.39208469754176], [4.70581597878298, 44.38700435496948], [4.69728602088384, 44.38752702395839], [4.6979132236705405, 44.39273280708802]]]}}, {"type": "Feature", "properties": {"id": 15, "text": "1: DXVVKIV\n2: EXT? CC", "bbox_w": 0.009281300541450932, "bbox_h": 0.0056871750470435245}, "geometry": {"type": "Polygon", "coordinates": [[[4.698645744717796, 44.3980029326992], [4.707187078245691, 44.39726296568564], [4.706827665696251, 44.39470479401021], [4.706235692085406, 44.392315757652156], [4.69790577770424, 44.39282316360431], [4.698645744717796, 44.3980029326992]]]}}, {"type": "Feature", "properties": {"id": 16, "text": "1: DD\n2: ?", "bbox_w": 0.00888828130028152, "bbox_h": 0.0029627604334194757}, "geometry": {"type": "Polygon", "coordinates": [[[4.699017568673008, 44.400275397566965], [4.707556667493635, 44.399693426767556], [4.707207485013981, 44.397312637133545], [4.698668386193353, 44.39802158338011], [4.699017568673008, 44.400275397566965]]]}}, {"type": "Feature", "properties": {"id": 17, "text": "1: DDXVIIIVK\n2: IV\n3: EXTR CC", "bbox_w": 0.009140164190549527, "bbox_h": 0.005512471529556251}, "geometry": {"type": "Polygon", "coordinates": [[[4.700726153598622, 44.41304639089128], [4.709258324605765, 44.41239786482898], [4.70856926566457, 44.407614985119515], [4.7073735457372035, 44.407533919361725], [4.70471864216966, 44.40779738307454], [4.703259458529484, 44.40797978102956], [4.700118160415215, 44.40814191254513], [4.700726153598622, 44.41304639089128]]]}}, {"type": "Feature", "properties": {"id": 18, "text": "1: DDXIXV?IV\n2: EXTR CC", "bbox_w": 0.009378344364896485, "bbox_h": 0.0058145735062353765}, "geometry": {"type": "Polygon", "coordinates": [[[4.7015256563829935, 44.41830863955848], [4.710070370137677, 44.41768341660082], [4.709299261823229, 44.41249406605225], [4.7006920257727804, 44.41316097054042], [4.7015256563829935, 44.41830863955848]]]}}, {"type": "Feature", "properties": {"id": 19, "text": "1: I.V.K.III \n2: IVOCC \n3: XLXIIS \n4: NI\n5: ??O", "bbox_w": 0.009088209047056317, "bbox_h": 0.0035515905484970745}, "geometry": {"type": "Polygon", "coordinates": [[[4.704474523026686, 44.376757687063936], [4.709903842717136, 44.376596738851774], [4.713283755172652, 44.37621046314256], [4.712693611728038, 44.37320609651544], [4.704195546125596, 44.37388207900654], [4.704474523026686, 44.376757687063936]]]}}, {"type": "Feature", "properties": {"id": 20, "text": "1: D V.KIII\n2: ??T\n3: C0\n4: XX\n5: AN\n6: VI", "bbox_w": 0.00944936914599559, "bbox_h": 0.005677910407897002}, "geometry": {"type": "Polygon", "coordinates": [[[4.705149512042669, 44.38196012657019], [4.713977212165902, 44.38135917984819], [4.713376265443897, 44.376282216162295], [4.709521917502768, 44.37665521757595], [4.704527843019906, 44.37680027368126], [4.705149512042669, 44.38196012657019]]]}}, {"type": "Feature", "properties": {"id": 21, "text": "1: DDX:IIVKIII\n2: FX?R XXV", "bbox_w": 0.009447830160792314, "bbox_h": 0.0055803603458315365}, "geometry": {"type": "Polygon", "coordinates": [[[4.705821360082969, 44.386979999305005], [4.71461204356211, 44.38641980869114], [4.713965669776879, 44.381399638959174], [4.705164213401318, 44.38204601274442], [4.705821360082969, 44.386979999305005]]]}}, {"type": "Feature", "properties": {"id": 22, "text": "1: DXIV.VKIII\n2: CXLVI\n3: IIIS\n4: III", "bbox_w": 0.009220097446819508, "bbox_h": 0.005622536059853189}, "geometry": {"type": "Polygon", "coordinates": [[[4.706554460070746, 44.39212276512463], [4.7151498312886915, 44.39162729259829], [4.715106746721182, 44.39093793951815], [4.7146112741948345, 44.38650022906478], [4.705929733841872, 44.38708187072614], [4.706554460070746, 44.39212276512463]]]}}, {"type": "Feature", "properties": {"id": 23, "text": "1: D.D.XV.VKIII\n2: FXTR. CXXC\n3: COL.IVCXX\n4: PR.A.IV CV\n5: C.DVVI\n6: VS", "bbox_w": 0.00950240661945756, "bbox_h": 0.005697239366973861}, "geometry": {"type": "Polygon", "coordinates": [[[4.707286469679527, 44.397400105384186], [4.70922058784101, 44.39737908236069], [4.711280844143459, 44.39704271398478], [4.715863863265232, 44.39674839165586], [4.715233172560401, 44.39170286601721], [4.706361456645775, 44.39222844160457], [4.707286469679527, 44.397400105384186]]]}}, {"type": "Feature", "properties": {"id": 24, "text": "1: EX", "bbox_w": 0.008753356977142523, "bbox_h": 0.0029683413511563117}, "geometry": {"type": "Polygon", "coordinates": [[[4.707586400430678, 44.39971358297744], [4.716209757056674, 44.399150248122474], [4.71588475617881, 44.396745241626284], [4.711009743010847, 44.39713524267972], [4.709449738797099, 44.397416910107204], [4.707456400079532, 44.397416910107204], [4.707586400430678, 44.39971358297744]]]}}, {"type": "Feature", "properties": {"id": 25, "text": "1: ?III\n2: CC", "bbox_w": 0.009699974083466678, "bbox_h": 0.005768091584613444}, "geometry": {"type": "Polygon", "coordinates": [[[4.708554846586192, 44.407555158990135], [4.717616139248524, 44.406916477569006], [4.716698034705645, 44.40178706740552], [4.707916165165058, 44.40242574882666], [4.708554846586192, 44.407555158990135]]]}}, {"type": "Feature", "properties": {"id": 26, "text": "1: DD.XVIII.V?\n2: III\n3: EXTR C C", "bbox_w": 0.009742628692626987, "bbox_h": 0.005559681557286922}, "geometry": {"type": "Polygon", "coordinates": [[[4.709365024594445, 44.412525454748], [4.718400510117, 44.411964261464334], [4.71774805257686, 44.40731964846672], [4.717460528915102, 44.40696577319071], [4.708657881424373, 44.40758505492373], [4.709365024594445, 44.412525454748]]]}}, {"type": "Feature", "properties": {"id": 27, "text": "1: DDXIX.VI\n2: III\n3: ?R CC", "bbox_w": 0.009507790085705459, "bbox_h": 0.005531401241448464}, "geometry": {"type": "Polygon", "coordinates": [[[4.710108168496857, 44.417609533806576], [4.7190605970121355, 44.41703195777333], [4.718371948664807, 44.41207813256513], [4.70955280692643, 44.41258906520992], [4.710108168496857, 44.417609533806576]]]}}, {"type": "Feature", "properties": {"id": 28, "text": "1: ?XV?\n2: III\n3: X? CC", "bbox_w": 0.009863221490777896, "bbox_h": 0.008285994630767846}, "geometry": {"type": "Polygon", "coordinates": [[[4.711163355480668, 44.425329059635516], [4.720026926144678, 44.42464041128819], [4.719049489780727, 44.41704306500475], [4.7101637046539, 44.417665069963626], [4.711163355480668, 44.425329059635516]]]}}, {"type": "Feature", "properties": {"id": 29, "text": "1: XI.V.K.II\n2: XXXVI\n3: XIV\n4: ?V?", "bbox_w": 0.008219351242314765, "bbox_h": 0.0035098851250907614}, "geometry": {"type": "Polygon", "coordinates": [[[4.713340372836742, 44.376179560652744], [4.720982148045812, 44.37557977015668], [4.720804432343276, 44.37266967552765], [4.7127627968034975, 44.373202822635264], [4.713340372836742, 44.376179560652744]]]}}, {"type": "Feature", "properties": {"id": 30, "text": "1: D.D.X\n2: EXTR", "bbox_w": 0.00828599463076607, "bbox_h": 0.005631366324116982}, "geometry": {"type": "Polygon", "coordinates": [[[4.713984592258435, 44.38126667263785], [4.721792975938635, 44.380744632761655], [4.721059898665672, 44.37563530631373], [4.7135069813078685, 44.37625731127261], [4.713984592258435, 44.38126667263785]]]}}, {"type": "Feature", "properties": {"id": 31, "text": "1: ?I\n2: V\n3: ?S", "bbox_w": 0.008375575709113292, "bbox_h": 0.005964801691952459}, "geometry": {"type": "Polygon", "coordinates": [[[4.715249052930147, 44.39167971550167], [4.723053001810449, 44.39105838199209], [4.722406814960487, 44.385714913809714], [4.7146774261013356, 44.38641080734045], [4.715249052930147, 44.39167971550167]]]}}, {"type": "Feature", "properties": {"id": 32, "text": "1: D.DXV.V?.II\n2: EXTR CC", "bbox_w": 0.00847546953944267, "bbox_h": 0.005591608475377541}, "geometry": {"type": "Polygon", "coordinates": [[[4.7159208138236846, 44.39678203202804], [4.723757871371844, 44.39623167686314], [4.723339601446521, 44.393942199377165], [4.723075430967369, 44.391190423552665], [4.715282401832401, 44.39169675030438], [4.7159208138236846, 44.39678203202804]]]}}, {"type": "Feature", "properties": {"id": 33, "text": "1: D.D.\n2: F?", "bbox_w": 0.008069015323611595, "bbox_h": 0.002806614025608667}, "geometry": {"type": "Polygon", "coordinates": [[[4.716316262870688, 44.399119648664396], [4.72407572517677, 44.398521179497166], [4.723889993366252, 44.39631303463879], [4.716006709853159, 44.396808319466835], [4.716316262870688, 44.399119648664396]]]}}, {"type": "Feature", "properties": {"id": 34, "text": "1: I\n2: C", "bbox_w": 0.008389673261552488, "bbox_h": 0.005629912320252117}, "geometry": {"type": "Polygon", "coordinates": [[[4.717635625894464, 44.406901745984555], [4.725234167686177, 44.40640498901512], [4.724406239403788, 44.4012718336643], [4.716844494424625, 44.40193417629022], [4.717635625894464, 44.406901745984555]]]}}, {"type": "Feature", "properties": {"id": 35, "text": "1: D.D.X.V\n2: II\n3: EXTR C", "bbox_w": 0.007958064111037721, "bbox_h": 0.005568567054197615}, "geometry": {"type": "Polygon", "coordinates": [[[4.7184472462046125, 44.41201888114138], [4.725761185022067, 44.41147864702418], [4.725387176787084, 44.408985258790956], [4.725137837963762, 44.40645031408718], [4.720151061497315, 44.406824322322166], [4.71780312091103, 44.40694899173383], [4.7184472462046125, 44.41201888114138]]]}}, {"type": "Feature", "properties": {"id": 36, "text": "1: XIV?\n2 . CC", "bbox_w": 0.00832349082530559, "bbox_h": 0.0037404329140855452}, "geometry": {"type": "Polygon", "coordinates": [[[4.721119356474903, 44.3756066670886], [4.729196225349829, 44.37492845672506], [4.728723533278269, 44.37186623417451], [4.720872734524524, 44.372523892708855], [4.721119356474903, 44.3756066670886]]]}}, {"type": "Feature", "properties": {"id": 37, "text": "1: EX??\n2: COL.IV\n3: PR.A.IV?\n4: SOL.ATTI\n5: MARTI", "bbox_w": 0.008578346896178424, "bbox_h": 0.005712571716259163}, "geometry": {"type": "Polygon", "coordinates": [[[4.721831833833792, 44.380725336128286], [4.729707970917673, 44.38011801953387], [4.729062697036102, 44.37501276441203], [4.721129624021494, 44.375658038293594], [4.721831833833792, 44.380725336128286]]]}}, {"type": "Feature", "properties": {"id": 38, "text": "1: DDXVV?I\n2: XTR CC", "bbox_w": 0.008475488651787266, "bbox_h": 0.005692492378067016}, "geometry": {"type": "Polygon", "coordinates": [[[4.723821737107958, 44.396216796536855], [4.731601476691315, 44.39562646399394], [4.731116560673924, 44.39052430415879], [4.723125988039528, 44.39115680331191], [4.723821737107958, 44.396216796536855]]]}}, {"type": "Feature", "properties": {"id": 39, "text": "1: DDX\n2: EXT", "bbox_w": 0.008025513858854083, "bbox_h": 0.0027522050144241916}, "geometry": {"type": "Polygon", "coordinates": [[[4.724133568083226, 44.39848103790324], [4.731969999154829, 44.39797681713724], [4.731528805984578, 44.395728832888814], [4.723944485295975, 44.396338099647735], [4.724133568083226, 44.39848103790324]]]}}, {"type": "Feature", "properties": {"id": 40, "text": "1: CC", "bbox_w": 0.00800277560336582, "bbox_h": 0.0032557875901915168}, "geometry": {"type": "Polygon", "coordinates": [[[4.724432362201712, 44.40131659823523], [4.732124471050289, 44.40073254473623], [4.731938070997416, 44.39806081064504], [4.724121695446923, 44.39860758413347], [4.724432362201712, 44.40131659823523]]]}}, {"type": "Feature", "properties": {"id": 41, "text": "1: VKI\n2: EX? CC", "bbox_w": 0.008412038069075756, "bbox_h": 0.005693179777765067}, "geometry": {"type": "Polygon", "coordinates": [[[4.725244560460328, 44.406444793583475], [4.732908456315017, 44.40593386719316], [4.732160314100631, 44.40075161380571], [4.724496418245941, 44.40135377705143], [4.725244560460328, 44.406444793583475]]]}}, {"type": "Feature", "properties": {"id": 42, "text": "1: D.DX.VIII\n2: EXTR", "bbox_w": 0.008278623810410224, "bbox_h": 0.005421027774332288}, "geometry": {"type": "Polygon", "coordinates": [[[4.725850094178287, 44.41148285746325], [4.7335193776574735, 44.41089452886759], [4.7328890255906915, 44.406061829688916], [4.725240753847063, 44.406524087871226], [4.725850094178287, 44.41148285746325]]]}}, {"type": "Feature", "properties": {"id": 43, "text": "1: ICKI\n2: IC.CL\n3: ?KAIII\n4: SSOLVII\n5: ?ROVARI", "bbox_w": 0.008343047490312117, "bbox_h": 0.0037013520041000447}, "geometry": {"type": "Polygon", "coordinates": [[[4.731155714348827, 44.37480993802493], [4.739278681449707, 44.374289748013545], [4.739018586444014, 44.37110858602083], [4.730935633959395, 44.37178883449726], [4.731155714348827, 44.37480993802493]]]}}, {"type": "Feature", "properties": {"id": 44, "text": "1: DDXII C I\n2: D?I\n3: COVLXII.\n4: IIIXXIISX\n5: SOL.LICII\n6: AFE", "bbox_w": 0.008903252117958615, "bbox_h": 0.005642060892732559}, "geometry": {"type": "Polygon", "coordinates": [[[4.731535853203303, 44.38003184544688], [4.740038959158657, 44.37943162620297], [4.739338703374099, 44.37438978455415], [4.731135707040698, 44.3748899672574], [4.731535853203303, 44.38003184544688]]]}}, {"type": "Feature", "properties": {"id": 45, "text": "1: C.KI.\n2: CC", "bbox_w": 0.009021762559074276, "bbox_h": 0.005691414947740725}, "geometry": {"type": "Polygon", "coordinates": [[[4.733721298169905, 44.395525769925946], [4.742072020538635, 44.39490443641637], [4.741376127007908, 44.389834354978206], [4.733050257979561, 44.390430835147406], [4.733721298169905, 44.395525769925946]]]}}, {"type": "Feature", "properties": {"id": 46, "text": "1: DD\n2: XI", "bbox_w": 0.008735949144668353, "bbox_h": 0.002907840824825314}, "geometry": {"type": "Polygon", "coordinates": [[[4.7339076982227795, 44.39789926393253], [4.742469673984766, 44.39729035709314], [4.742146580559785, 44.394991423107705], [4.733733724840097, 44.39557547660671], [4.7339076982227795, 44.39789926393253]]]}}, {"type": "Feature", "properties": {"id": 47, "text": "1: VICKI\n2: CC", "bbox_w": 0.008824162311926287, "bbox_h": 0.0032069754677692686}, "geometry": {"type": "Polygon", "coordinates": [[[4.734282211549424, 44.400613415673085], [4.742648234508812, 44.399995923502274], [4.742389286179117, 44.397406440205316], [4.733824072196886, 44.39804385147841], [4.734282211549424, 44.400613415673085]]]}}, {"type": "Feature", "properties": {"id": 48, "text": "1: DDXVIICKI\n2: EXTR CC", "bbox_w": 0.009094348389229623, "bbox_h": 0.005593426664177059}, "geometry": {"type": "Polygon", "coordinates": [[[4.735102426004128, 44.405714997852286], [4.743371844561591, 44.405111390658305], [4.742647515928821, 44.40012157118811], [4.7342774961723615, 44.40064469742289], [4.735102426004128, 44.405714997852286]]]}}, {"type": "Feature", "properties": {"id": 49, "text": "1: D.D.XVIIIC.K.?\n2: EXTR.CDXXIIV\n3: IRICREDD\n4: CVII.XIIIIS\n5: REIICOIVII\n6: XVIXVII SOL\n7: IVI.FLOR\n8: VS", "bbox_w": 0.00893734498055565, "bbox_h": 0.005453646705078086}, "geometry": {"type": "Polygon", "coordinates": [[[4.7356883051040795, 44.41076178971487], [4.744127978902424, 44.41020190963488], [4.743505889924659, 44.40530814300979], [4.735190633921868, 44.40582655049126], [4.7356883051040795, 44.41076178971487]]]}}, {"type": "Feature", "properties": {"id": 50, "text": "1: D.DXIX CKI\n2: EXTR. CIXX\n3: VCOI NC\n4: XXV ??A\n5: IVX V?\n6: SOL\n7: M ???", "bbox_w": 0.009149861652732127, "bbox_h": 0.005583657222381078}, "geometry": {"type": "Polygon", "coordinates": [[[4.736312168825371, 44.41585514322033], [4.744789546214094, 44.415345685444564], [4.744117061950085, 44.410271485997946], [4.735639684561362, 44.410923591950926], [4.736312168825371, 44.41585514322033]]]}}, {"type": "Feature", "properties": {"id": 51, "text": "1: DDXX. G II\n2: IXI.CXX\n3: VCO?IX\n4: PR.AVX\n5: XIIX??TR\n6: RFDDIN\n7: CVLII\n8: XV\n9: SOIIVI ??", "bbox_w": 0.009577806184375426, "bbox_h": 0.008110567790176049}, "geometry": {"type": "Polygon", "coordinates": [[[4.7372393819772585, 44.42352757732335], [4.745900164165257, 44.422834714748305], [4.7448608703026975, 44.41541700953317], [4.736342736291912, 44.41592646730894], [4.736322357980882, 44.41682311299429], [4.7372393819772585, 44.42352757732335]]]}}, {"type": "Feature", "properties": {"id": 52, "text": "1: ICKII\n2: CXIIIII\n3: REDINC\n4: LVI", "bbox_w": 0.009088726719640228, "bbox_h": 0.003871879095811437}, "geometry": {"type": "Polygon", "coordinates": [[[4.739379104635467, 44.3742528212514], [4.7482232916227405, 44.373641471920486], [4.747734212158006, 44.37038094215559], [4.7391345649031, 44.37127758784094], [4.739379104635467, 44.3742528212514]]]}}, {"type": "Feature", "properties": {"id": 53, "text": "1: DDXII.C\n2: EX?RIBVTA", "bbox_w": 0.009159778654908912, "bbox_h": 0.005719680789034953}, "geometry": {"type": "Polygon", "coordinates": [[[4.740067861677813, 44.379378407895025], [4.74868882982361, 44.37875670346144], [4.7481914662767375, 44.37365872710599], [4.739529051168701, 44.3744047724263], [4.740067861677813, 44.379378407895025]]]}}, {"type": "Feature", "properties": {"id": 54, "text": "1: DDXVCK.II", "bbox_w": 0.009161541425537045, "bbox_h": 0.005741795547812956}, "geometry": {"type": "Polygon", "coordinates": [[[4.742151030433441, 44.394941920678235], [4.750721504670236, 44.39435085348949], [4.7500882183965825, 44.38920012513042], [4.741559963244699, 44.38983341140408], [4.742151030433441, 44.394941920678235]]]}}, {"type": "Feature", "properties": {"id": 55, "text": "1: D", "bbox_w": 0.008612693321705223, "bbox_h": 0.0028286786889850646}, "geometry": {"type": "Polygon", "coordinates": [[[4.742404344942904, 44.3973061894332], [4.750911490552333, 44.39673623178692], [4.750700395127782, 44.39447751074422], [4.742298797230628, 44.39513190656032], [4.742404344942904, 44.3973061894332]]]}}, {"type": "Feature", "properties": {"id": 56, "text": "1: CKII\n2: CI V?N\n3: ?? XXVS\n4: LIVS ??OR\n5: XXXVII", "bbox_w": 0.009092423145161455, "bbox_h": 0.0031813661976585195}, "geometry": {"type": "Polygon", "coordinates": [[[4.742711897911938, 44.40000111476071], [4.75152938817582, 44.399510163186996], [4.7509206082244155, 44.396819748563054], [4.742436965030659, 44.39740889045151], [4.742711897911938, 44.40000111476071]]]}}, {"type": "Feature", "properties": {"id": 57, "text": "1: DD.XVII.C.KII\n2: EXTCLXIIITRI\n3: REDDCVLIXX\n4: VEIINCXI", "bbox_w": 0.009308441837594827, "bbox_h": 0.005557571814435391}, "geometry": {"type": "Polygon", "coordinates": [[[4.743399230115131, 44.405165925316126], [4.752020339749528, 44.40455714536472], [4.751391921735175, 44.39960835350169], [4.742711897911933, 44.40009930507541], [4.743399230115131, 44.405165925316126]]]}}, {"type": "Feature", "properties": {"id": 58, "text": "1: DD.XVIII.C.KII\n2: EXTR.CXII\n3: TRICRIDDT\n4: CVLTXXXXVEI\n5: INC LIII", "bbox_w": 0.009018380611405696, "bbox_h": 0.005680543189711784}, "geometry": {"type": "Polygon", "coordinates": [[[4.744194734782011, 44.41035719448327], [4.745811823719228, 44.4100462158415], [4.752591158109871, 44.409569381924115], [4.751927737007422, 44.404676651293556], [4.743572777498465, 44.40515348521094], [4.744194734782011, 44.41035719448327]]]}}, {"type": "Feature", "properties": {"id": 59, "text": "1: D.DXI X.C.??\n2: EXTR CXI?X\n3: TRIC RED?T\n4: INC XX", "bbox_w": 0.009098852483478304, "bbox_h": 0.00557671603826293}, "geometry": {"type": "Polygon", "coordinates": [[[4.74470658704417, 44.41535786949861], [4.753469997961436, 44.41485470714929], [4.752673324241685, 44.409781153460344], [4.744371145477958, 44.41049396678854], [4.74470658704417, 44.41535786949861]]]}}, {"type": "Feature", "properties": {"id": 60, "text": "1: D D? ?I\n2: EX ?VI\n3: C.RED", "bbox_w": 0.00956008463701874, "bbox_h": 0.007799016414409721}, "geometry": {"type": "Polygon", "coordinates": [[[4.7459225627216854, 44.42277951415105], [4.754476322660071, 44.422276351801735], [4.75342806776566, 44.41498049773664], [4.744916238023052, 44.41550462518385], [4.7459225627216854, 44.42277951415105]]]}}, {"type": "Feature", "properties": {"id": 61, "text": "1: ICKIII", "bbox_w": 0.002759293701015686, "bbox_h": 0.0032364647921738765}, "geometry": {"type": "Polygon", "coordinates": [[[4.74818925515608, 44.373685254192786], [4.7505543640426655, 44.37349853507016], [4.750118686089873, 44.37044878940061], [4.74779507034165, 44.370490282538974], [4.74818925515608, 44.373685254192786]]]}}, {"type": "Feature", "properties": {"id": 62, "text": "1: DDXIICK", "bbox_w": 0.002904519685279716, "bbox_h": 0.00514514915678177}, "geometry": {"type": "Polygon", "coordinates": [[[4.748728665954776, 44.37874741707284], [4.751197507687263, 44.37858144451939], [4.750575110611846, 44.373602267916056], [4.7482929880019835, 44.3737682404695], [4.748728665954776, 44.37874741707284]]]}}, {"type": "Feature", "properties": {"id": 63, "text": "1: ICKIII", "bbox_w": 0.0031327319462661762, "bbox_h": 0.002977132677415284}, "geometry": {"type": "Polygon", "coordinates": [[[4.751529452794153, 44.39948361296883], [4.7541435205109055, 44.39939025340752], [4.753707842558113, 44.396506480291414], [4.751010788564639, 44.396755439121584], [4.751529452794153, 44.39948361296883]]]}}, {"type": "Feature", "properties": {"id": 64, "text": "1:D D.XVIICKIII", "bbox_w": 0.0032523474029542143, "bbox_h": 0.005076298987049199}, "geometry": {"type": "Polygon", "coordinates": [[[4.752085456746278, 44.40454094516158], [4.754788421141977, 44.40443106856012], [4.75417311217385, 44.39946464617453], [4.751536073739023, 44.39957452277598], [4.752085456746278, 44.40454094516158]]]}}, {"type": "Feature", "properties": {"id": 65, "text": "1: DDXVIICKII\n2: FX", "bbox_w": 0.0034940759261479215, "bbox_h": 0.005318027510234913}, "geometry": {"type": "Polygon", "coordinates": [[[4.7526568150738235, 44.40978205905078], [4.755601507992716, 44.4095183552073], [4.754898297743428, 44.40446403154054], [4.752107432066568, 44.40472773538402], [4.7526568150738235, 44.40978205905078]]]}}, {"type": "Feature", "properties": {"id": 66, "text": "1: DDX IX.CKIIIDDXXC?\n2: EXT LXX? ?X??", "bbox_w": 0.0046367925812385025, "bbox_h": 0.012635809166887668}, "geometry": {"type": "Polygon", "coordinates": [[[4.75561249565286, 44.40960625648846], [4.75275570401513, 44.40980403437107], [4.7545576802789284, 44.42224206565535], [4.757392496596369, 44.4221102137336], [4.75561249565286, 44.40960625648846]]]}}, {"type": "Feature", "properties": {"id": 67, "text": "1: CLXVII\n2: IC.RED.INC\n3: XXXIII", "bbox_w": 0.0066454585117616816, "bbox_h": 0.005386319004266227}, "geometry": {"type": "Polygon", "coordinates": [[[4.757242618346431, 44.37825490413944], [4.751273364384988, 44.37858134771545], [4.752206060316463, 44.383641223143705], [4.75791882289675, 44.3834780013557], [4.757242618346431, 44.37825490413944]]]}}, {"type": "Feature", "properties": {"id": 68, "text": "1: ?RT C.R?D\n2: INC CXV", "bbox_w": 0.0060858409528767865, "bbox_h": 0.005269732012834538}, "geometry": {"type": "Polygon", "coordinates": [[[4.756239970220091, 44.41451345847556], [4.7618128284106565, 44.414350236687554], [4.76118325865691, 44.409243726462726], [4.75572698745778, 44.40966343963189], [4.756239970220091, 44.41451345847556]]]}}, {"type": "Feature", "properties": {"id": 69, "text": "1: ?XX?", "bbox_w": 0.006155793147737398, "bbox_h": 0.005316366809410056}, "geometry": {"type": "Polygon", "coordinates": [[[4.757056079160131, 44.41977153178925], [4.76260561995241, 44.41935181862009], [4.76178951101237, 44.41445516497984], [4.756449826804673, 44.41464170416614], [4.757056079160131, 44.41977153178925]]]}}, {"type": "Feature", "properties": {"id": 70, "text": "1: DD.XII.CK.IIII\n2: EXTRIB.CXXCIV\n3: TRICRINCXVI", "bbox_w": 0.009408570208758071, "bbox_h": 0.005736079978568398}, "geometry": {"type": "Polygon", "coordinates": [[[4.757965457693321, 44.38339056111213], [4.766709482050903, 44.382830943553245], [4.766009960102297, 44.37765448113356], [4.757300911842145, 44.378214098692446], [4.757965457693321, 44.38339056111213]]]}}, {"type": "Feature", "properties": {"id": 71, "text": "1: DX ?X.C.KIV.\n2: IR LXII\n3: C", "bbox_w": 0.009705867036916338, "bbox_h": 0.005945936563158227}, "geometry": {"type": "Polygon", "coordinates": [[[4.7618303164593705, 44.414449335630245], [4.770871637645111, 44.41388971807136], [4.770172115696504, 44.40850339906709], [4.761165770608194, 44.40920292101569], [4.7618303164593705, 44.414449335630245]]]}}, {"type": "Feature", "properties": {"id": 72, "text": "1: X.C.KIIII\n2: ?.CVISTR\n3: ED", "bbox_w": 0.009583450695910045, "bbox_h": 0.005316366809410056}, "geometry": {"type": "Polygon", "coordinates": [[[4.7626872308464145, 44.419276037075655], [4.771466231301427, 44.418646467321906], [4.770836661547681, 44.413959670266244], [4.761882780605517, 44.4144843117277], [4.7626872308464145, 44.419276037075655]]]}}, {"type": "Feature", "properties": {"id": 73, "text": "1: D.D.XIII.C\n2: EXT CI\n3: ??", "bbox_w": 0.009352448952751224, "bbox_h": 0.005725097256124911}, "geometry": {"type": "Polygon", "coordinates": [[[4.766679968832531, 44.38282994667749], [4.7754533526047975, 44.38223995573888], [4.774907064698679, 44.377104849421364], [4.766100903652046, 44.37762928581124], [4.766679968832531, 44.38282994667749]]]}}, {"type": "Feature", "properties": {"id": 74, "text": "1: C?VI. 2: VTRIC 3: INC 4: V", "bbox_w": 0.009221339855282729, "bbox_h": 0.0032340244042217137}, "geometry": {"type": "Polygon", "coordinates": [[[4.777551098164286, 44.39756879438456], [4.786357259210919, 44.396978803445954], [4.785985783434759, 44.39433476998034], [4.777135919355636, 44.394968463951436], [4.777551098164286, 44.39756879438456]]]}}, {"type": "Feature", "properties": {"id": 75, "text": "1: DV?\n2: ?RIC\n3: INC.", "bbox_w": 0.009592815631442875, "bbox_h": 0.005768800288613818}, "geometry": {"type": "Polygon", "coordinates": [[[4.777594801196776, 44.39765620044955], [4.778315901232852, 44.40276945525081], [4.787187616828219, 44.40211390976347], [4.786379110727164, 44.3970006549622], [4.777594801196776, 44.39765620044955]]]}}, {"type": "Feature", "properties": {"id": 76, "text": "1: ?XIIXCKV\n2: CIC.REDD\n3: IC CC.", "bbox_w": 0.009383461023199757, "bbox_h": 0.005599454596598719}, "geometry": {"type": "Polygon", "coordinates": [[[4.779148556106463, 44.407830374958905], [4.7877883395660525, 44.407217934612405], [4.787241517828104, 44.40223092036231], [4.778404878542853, 44.40288710644785], [4.779148556106463, 44.407830374958905]]]}}, {"type": "Feature", "properties": {"id": 77, "text": "1: II 2: II", "bbox_w": 0.009252223806093696, "bbox_h": 0.005774437552737766}, "geometry": {"type": "Polygon", "coordinates": [[[4.787290731784521, 44.402192642840646], [4.795580549331824, 44.40160207536366], [4.79488061750725, 44.39641820528791], [4.78632832552573, 44.397052518503926], [4.787290731784521, 44.402192642840646]]]}}, {"type": "Feature", "properties": {"id": 78, "text": "1: DDVIIX II\n2: TRIC.R\n3: ?IIV", "bbox_w": 0.00890826236166653, "bbox_h": 0.0056049593328211245}, "geometry": {"type": "Polygon", "coordinates": [[[4.787805643735151, 44.407259990874074], [4.796202426918157, 44.406769823327856], [4.795541766312388, 44.40165503154125], [4.78729416455649, 44.40231569214703], [4.787805643735151, 44.407259990874074]]]}}, {"type": "Feature", "properties": {"id": 79, "text": "1:DD", "bbox_w": 0.009143274609349383, "bbox_h": 0.005750747378726828}, "geometry": {"type": "Polygon", "coordinates": [[[4.788340253900466, 44.41265439483651], [4.796987061110213, 44.41203381058701], [4.796304418435759, 44.40690364745778], [4.787843786500863, 44.40735874257408], [4.788340253900466, 44.41265439483651]]]}}, {"type": "Feature", "properties": {"id": 80, "text": "1: V?\n2: ?TRV\n3: INC", "bbox_w": 0.009515625159051133, "bbox_h": 0.007467697135687956}, "geometry": {"type": "Polygon", "coordinates": [[[4.789188385708121, 44.419522193864324], [4.797917937484468, 44.41883955118987], [4.797007747251863, 44.412054496728636], [4.788402312325417, 44.412695767119786], [4.789188385708121, 44.419522193864324]]]}}, {"type": "Feature", "properties": {"id": 81, "text": "1: IC?VII\n2: XXIIS L\n3: IC", "bbox_w": 0.009391508309151142, "bbox_h": 0.005833491945331559}, "geometry": {"type": "Polygon", "coordinates": [[[4.789788283815976, 44.42477647384345], [4.798517835592323, 44.42419726187725], [4.797897251342819, 44.41894298189812], [4.789126327283172, 44.419625624572575], [4.789788283815976, 44.42477647384345]]]}}, {"type": "Feature", "properties": {"id": 82, "text": "1: DDX\n2: EXT?\n3: ???LC", "bbox_w": 0.009473016796995637, "bbox_h": 0.005640750910941961}, "geometry": {"type": "Polygon", "coordinates": [[[4.790533437538335, 44.42992793933597], [4.799252918908297, 44.42930358141071], [4.798563972232152, 44.424287188425026], [4.7897799021113014, 44.42491154635028], [4.790533437538335, 44.42992793933597]]]}}]}